FLOCK 4BE-32            
1 60497U 24149AF  26063.53117516  .00026392  00000+0  70179-3 0  9990
2 60497  97.3774 146.6054 0002630 286.0727  74.0228 15.38211678 86227
NUSAT-48 (HENRIETTA LE*)
1 60498U 24149AG  26063.17952167  .00017035  00000+0  59492-3 0  9999
2 60498  97.3941 145.2303 0002712 293.1348  66.9607 15.29645929 86080
FLOCK 4BE-30            
1 60499U 24149AH  26063.47667375  .00025548  00000+0  68344-3 0  9991
2 60499  97.3853 147.1087 0002027 288.7812  71.3212 15.38034570 85599
NUSAT-49 (KLARA DAN VO*)
1 60500U 24149AJ  26063.17598078  .00017232  00000+0  58604-3 0  9993
2 60500  97.3829 145.1459 0001355 326.4026  33.7129 15.30507403 86071
FLOCK 4BE-11            
1 60501U 24149AK  26063.19225622  .00032899  00000+0  85106-3 0  9991
2 60501  97.3757 146.3903 0003055 289.9550  70.1366 15.39013801 86186
FLOCK 4BE-33            
1 60502U 24149AL  26063.67098859  .00329861  00000+0  33557-2 0  9995
2 60502  97.3693 147.9505 0006912 262.4823  97.5651 15.64079932 86326
FLOCK 4BE-10            
1 60503U 24149AM  26063.17427660  .00276764  00000+0  21625-2 0  9993
2 60503  97.3763 149.0320 0006270 237.0061 123.0599 15.70795876 86327
YAM-7                   
1 60504U 24149AN  26063.22514248  .00013217  00000+0  45475-3 0  9991
2 60504  97.3844 144.0013 0002244 326.1369  33.9728 15.30189037 85997
FLOCK 4BE-24            
1 60505U 24149AP  26063.62854753  .00027271  00000+0  70891-3 0  9999
2 60505  97.3770 147.0756 0002904 297.2699  62.8250 15.38903826 86260
LUR-1                   
1 60506U 24149AQ  26063.23143188  .00012752  00000+0  46151-3 0  9990
2 60506  97.3809 142.9101 0003249 335.5612  24.5473 15.28541569 85932
TANAGER-1               
1 60507U 24149AR  26063.24770101  .00006222  00000+0  14010-3 0  9997
2 60507  97.3773 156.5482 0006733 216.0341 144.0453 15.43636846 86846
EAGLEEYE                
1 60508U 24149AS  26063.24310883  .00086962  00000+0  12449-2 0  9997
2 60508  97.3790 152.0404 0002807 271.5595  88.5338 15.55897132 86547
FLOCK 4BE-29            
1 60509U 24149AT  26063.65940142  .00029975  00000+0  74713-3 0  9994
2 60509  97.3855 148.2380 0001928 315.8758  44.2334 15.40172915 86304
TRANSPORTER-11 OBJECT AU
1 60510U 24149AU  26063.22614348  .00024628  00000+0  68095-3 0  9991
2 60510  97.3785 146.3364 0002570 315.8276  44.2763 15.37015675 86174
FLOCK 4BE-2             
1 60511U 24149AV  26063.63574832  .00060591  00000+0  13828-2 0  9992
2 60511  97.3858 148.7735 0002654 296.9056  63.1920 15.42673859 86335
FLOCK 4BE-13            
1 60512U 24149AW  26063.63382726  .00025595  00000+0  67237-3 0  9991
2 60512  97.3769 147.1841 0003449 288.0070  72.0799 15.38591090 86276
