[{"OBJECT_NAME":"FLOCK 4BE-32","OBJECT_ID":"2024-149AF","EPOCH":"2026-03-04T12:44:53.533824","MEAN_MOTION":15.38211678,"ECCENTRICITY":0.000263,"INCLINATION":97.3774,"RA_OF_ASC_NODE":146.6054,"ARG_OF_PERICENTER":286.0727,"MEAN_ANOMALY":74.0228,"EPHEMERIS_TYPE":0,"CLASSIFICATION_TYPE":"U","NORAD_CAT_ID":60497,"ELEMENT_SET_NO":999,"REV_AT_EPOCH":8622,"BSTAR":0.00070179,"MEAN_MOTION_DOT":0.00026392,"MEAN_MOTION_DDOT":0},{"OBJECT_NAME":"NUSAT-48 (HENRIETTA LEAVITT)","OBJECT_ID":"2024-149AG","EPOCH":"2026-03-04T04:18:30.672288","MEAN_MOTION":15.29645929,"ECCENTRICITY":0.00027126,"INCLINATION":97.3941,"RA_OF_ASC_NODE":145.2303,"ARG_OF_PERICENTER":293.1348,"MEAN_ANOMALY":66.9607,"EPHEMERIS_TYPE":0,"CLASSIFICATION_TYPE":"U","NORAD_CAT_ID":60498,"ELEMENT_SET_NO":999,"REV_AT_EPOCH":8608,"BSTAR":0.0005949203,"MEAN_MOTION_DOT":0.00017035,"MEAN_MOTION_DDOT":0},{"OBJECT_NAME":"FLOCK 4BE-30","OBJECT_ID":"2024-149AH","EPOCH":"2026-03-04T11:26:24.612000","MEAN_MOTION":15.3803457,"ECCENTRICITY":0.00020277,"INCLINATION":97.3853,"RA_OF_ASC_NODE":147.1087,"ARG_OF_PERICENTER":288.7812,"MEAN_ANOMALY":71.3212,"EPHEMERIS_TYPE":0,"CLASSIFICATION_TYPE":"U","NORAD_CAT_ID":60499,"ELEMENT_SET_NO":999,"REV_AT_EPOCH":8559,"BSTAR":0.00068343538,"MEAN_MOTION_DOT":0.00025548,"MEAN_MOTION_DDOT":0},{"OBJECT_NAME":"NUSAT-49 (KLARA DAN VON NEUMANN)","OBJECT_ID":"2024-149AJ","EPOCH":"2026-03-04T04:13:24.739392","MEAN_MOTION":15.30507403,"ECCENTRICITY":0.00013555,"INCLINATION":97.3829,"RA_OF_ASC_NODE":145.1459,"ARG_OF_PERICENTER":326.4026,"MEAN_ANOMALY":33.7129,"EPHEMERIS_TYPE":0,"CLASSIFICATION_TYPE":"U","NORAD_CAT_ID":60500,"ELEMENT_SET_NO":999,"REV_AT_EPOCH":8607,"BSTAR":0.00058604204,"MEAN_MOTION_DOT":0.00017232,"MEAN_MOTION_DDOT":0},{"OBJECT_NAME":"FLOCK 4BE-11","OBJECT_ID":"2024-149AK","EPOCH":"2026-03-04T04:36:50.937408","MEAN_MOTION":15.39013801,"ECCENTRICITY":0.0003055,"INCLINATION":97.3757,"RA_OF_ASC_NODE":146.3903,"ARG_OF_PERICENTER":289.955,"MEAN_ANOMALY":70.1366,"EPHEMERIS_TYPE":0,"CLASSIFICATION_TYPE":"U","NORAD_CAT_ID":60501,"ELEMENT_SET_NO":999,"REV_AT_EPOCH":8618,"BSTAR":0.00085105546,"MEAN_MOTION_DOT":0.00032899,"MEAN_MOTION_DDOT":0},{"OBJECT_NAME":"FLOCK 4BE-33","OBJECT_ID":"2024-149AL","EPOCH":"2026-03-04T16:06:13.414176","MEAN_MOTION":15.64079932,"ECCENTRICITY":0.0006912,"INCLINATION":97.3693,"RA_OF_ASC_NODE":147.9505,"ARG_OF_PERICENTER":262.4823,"MEAN_ANOMALY":97.5651,"EPHEMERIS_TYPE":0,"CLASSIFICATION_TYPE":"U","NORAD_CAT_ID":60502,"ELEMENT_SET_NO":999,"REV_AT_EPOCH":8632,"BSTAR":0.0033557,"MEAN_MOTION_DOT":0.00329861,"MEAN_MOTION_DDOT":0},{"OBJECT_NAME":"FLOCK 4BE-10","OBJECT_ID":"2024-149AM","EPOCH":"2026-03-04T04:10:57.498240","MEAN_MOTION":15.70795876,"ECCENTRICITY":0.00062708,"INCLINATION":97.3763,"RA_OF_ASC_NODE":149.032,"ARG_OF_PERICENTER":237.0061,"MEAN_ANOMALY":123.0599,"EPHEMERIS_TYPE":0,"CLASSIFICATION_TYPE":"U","NORAD_CAT_ID":60503,"ELEMENT_SET_NO":999,"REV_AT_EPOCH":8632,"BSTAR":0.002162474,"MEAN_MOTION_DOT":0.00276764,"MEAN_MOTION_DDOT":0},{"OBJECT_NAME":"YAM-7","OBJECT_ID":"2024-149AN","EPOCH":"2026-03-04T05:24:12.310272","MEAN_MOTION":15.30189037,"ECCENTRICITY":0.00022441,"INCLINATION":97.3844,"RA_OF_ASC_NODE":144.0013,"ARG_OF_PERICENTER":326.1369,"MEAN_ANOMALY":33.9728,"EPHEMERIS_TYPE":0,"CLASSIFICATION_TYPE":"U","NORAD_CAT_ID":60504,"ELEMENT_SET_NO":999,"REV_AT_EPOCH":8599,"BSTAR":0.00045474801,"MEAN_MOTION_DOT":0.00013217,"MEAN_MOTION_DDOT":0},{"OBJECT_NAME":"FLOCK 4BE-24","OBJECT_ID":"2024-149AP","EPOCH":"2026-03-04T15:05:06.506592","MEAN_MOTION":15.38903826,"ECCENTRICITY":0.0002904,"INCLINATION":97.377,"RA_OF_ASC_NODE":147.0756,"ARG_OF_PERICENTER":297.2699,"MEAN_ANOMALY":62.825,"EPHEMERIS_TYPE":0,"CLASSIFICATION_TYPE":"U","NORAD_CAT_ID":60505,"ELEMENT_SET_NO":999,"REV_AT_EPOCH":8626,"BSTAR":0.00070891,"MEAN_MOTION_DOT":0.00027271,"MEAN_MOTION_DDOT":0},{"OBJECT_NAME":"LUR-1","OBJECT_ID":"2024-149AQ","EPOCH":"2026-03-04T05:33:15.714432","MEAN_MOTION":15.28541569,"ECCENTRICITY":0.00032498,"INCLINATION":97.3809,"RA_OF_ASC_NODE":142.9101,"ARG_OF_PERICENTER":335.5612,"MEAN_ANOMALY":24.5473,"EPHEMERIS_TYPE":0,"CLASSIFICATION_TYPE":"U","NORAD_CAT_ID":60506,"ELEMENT_SET_NO":999,"REV_AT_EPOCH":8593,"BSTAR":0.00046151106,"MEAN_MOTION_DOT":0.00012752,"MEAN_MOTION_DDOT":0},{"OBJECT_NAME":"TANAGER-1","OBJECT_ID":"2024-149AR","EPOCH":"2026-03-04T05:56:41.367264","MEAN_MOTION":15.43636846,"ECCENTRICITY":0.00067338,"INCLINATION":97.3773,"RA_OF_ASC_NODE":156.5482,"ARG_OF_PERICENTER":216.0341,"MEAN_ANOMALY":144.0453,"EPHEMERIS_TYPE":0,"CLASSIFICATION_TYPE":"U","NORAD_CAT_ID":60507,"ELEMENT_SET_NO":999,"REV_AT_EPOCH":8684,"BSTAR":0.00014009977,"MEAN_MOTION_DOT":6.222e-5,"MEAN_MOTION_DDOT":0},{"OBJECT_NAME":"EAGLEEYE","OBJECT_ID":"2024-149AS","EPOCH":"2026-03-04T05:50:04.602912","MEAN_MOTION":15.55897132,"ECCENTRICITY":0.00028071,"INCLINATION":97.379,"RA_OF_ASC_NODE":152.0404,"ARG_OF_PERICENTER":271.5595,"MEAN_ANOMALY":88.5338,"EPHEMERIS_TYPE":0,"CLASSIFICATION_TYPE":"U","NORAD_CAT_ID":60508,"ELEMENT_SET_NO":999,"REV_AT_EPOCH":8654,"BSTAR":0.0012449083,"MEAN_MOTION_DOT":0.00086962,"MEAN_MOTION_DDOT":0},{"OBJECT_NAME":"FLOCK 4BE-29","OBJECT_ID":"2024-149AT","EPOCH":"2026-03-04T15:49:32.282688","MEAN_MOTION":15.40172915,"ECCENTRICITY":0.0001928,"INCLINATION":97.3855,"RA_OF_ASC_NODE":148.238,"ARG_OF_PERICENTER":315.8758,"MEAN_ANOMALY":44.2334,"EPHEMERIS_TYPE":0,"CLASSIFICATION_TYPE":"U","NORAD_CAT_ID":60509,"ELEMENT_SET_NO":999,"REV_AT_EPOCH":8630,"BSTAR":0.00074713,"MEAN_MOTION_DOT":0.00029975,"MEAN_MOTION_DDOT":0},{"OBJECT_NAME":"TRANSPORTER-11 OBJECT AU","OBJECT_ID":"2024-149AU","EPOCH":"2026-03-04T05:25:38.796672","MEAN_MOTION":15.37015675,"ECCENTRICITY":0.000257,"INCLINATION":97.3785,"RA_OF_ASC_NODE":146.3364,"ARG_OF_PERICENTER":315.8276,"MEAN_ANOMALY":44.2763,"EPHEMERIS_TYPE":0,"CLASSIFICATION_TYPE":"U","NORAD_CAT_ID":60510,"ELEMENT_SET_NO":999,"REV_AT_EPOCH":8617,"BSTAR":0.000680954,"MEAN_MOTION_DOT":0.00024628,"MEAN_MOTION_DDOT":0},{"OBJECT_NAME":"FLOCK 4BE-2","OBJECT_ID":"2024-149AV","EPOCH":"2026-03-04T15:15:28.654848","MEAN_MOTION":15.42673859,"ECCENTRICITY":0.0002654,"INCLINATION":97.3858,"RA_OF_ASC_NODE":148.7735,"ARG_OF_PERICENTER":296.9056,"MEAN_ANOMALY":63.192,"EPHEMERIS_TYPE":0,"CLASSIFICATION_TYPE":"U","NORAD_CAT_ID":60511,"ELEMENT_SET_NO":999,"REV_AT_EPOCH":8633,"BSTAR":0.0013828,"MEAN_MOTION_DOT":0.00060591,"MEAN_MOTION_DDOT":0},{"OBJECT_NAME":"FLOCK 4BE-13","OBJECT_ID":"2024-149AW","EPOCH":"2026-03-04T15:12:42.675264","MEAN_MOTION":15.3859109,"ECCENTRICITY":0.0003449,"INCLINATION":97.3769,"RA_OF_ASC_NODE":147.1841,"ARG_OF_PERICENTER":288.007,"MEAN_ANOMALY":72.0799,"EPHEMERIS_TYPE":0,"CLASSIFICATION_TYPE":"U","NORAD_CAT_ID":60512,"ELEMENT_SET_NO":999,"REV_AT_EPOCH":8627,"BSTAR":0.00067237,"MEAN_MOTION_DOT":0.00025595,"MEAN_MOTION_DDOT":0}]
